H1 CPF 01  gfz 2021 05 30 12  6502 tandemx   
H2 1003001  6202 36605    2021 05 30 12 59 42 2021 06 04 00 00 42   120 1 1  0 0 0
H9
10 0 59367  85662.000000  0    -792521.542   5976933.928   3323441.288
10 0 59367  85782.000000  0    -653546.028   6380330.690   2506094.966
10 0 59367  85902.000000  0    -497083.770   6669578.100   1644615.425
10 0 59367  86022.000000  0    -327916.414   6839363.205    754174.979
10 0 59367  86142.000000  0    -151121.840   6886570.274   -149543.832
10 0 59367  86262.000000  0      28055.734   6810341.326  -1050632.860
10 0 59367  86382.000000  0     204339.496   6612089.612  -1933248.825
10 0 59368    102.000000  0     372552.417   6295465.658  -2781899.396
10 0 59368    222.000000  0     527746.361   5866280.871  -3581719.540
10 0 59368    342.000000  0     665325.285   5332389.803  -4318734.054
10 0 59368    462.000000  0     781159.186   4703533.798  -4980100.336
10 0 59368    582.000000  0     871686.174   3991151.094  -5554326.789
10 0 59368    702.000000  0     934000.221   3208158.731  -6031464.121
10 0 59368    822.000000  0     965922.627   2368710.740  -6403267.500
10 0 59368    942.000000  0     966056.820   1487938.590  -6663326.683
10 0 59368   1062.000000  0     933825.015    581679.772  -6807165.993
10 0 59368   1182.000000  0     869486.783   -333803.301  -6832313.481
10 0 59368   1302.000000  0     774139.074  -1242109.651  -6738338.088
10 0 59368   1422.000000  0     649697.568  -2126985.698  -6526854.466
10 0 59368   1542.000000  0     498860.577  -2972607.400  -6201499.133
10 0 59368   1662.000000  0     325054.491  -3763859.456  -5767876.902
10 0 59368   1782.000000  0     132362.169  -4486604.196  -5233472.891
10 0 59368   1902.000000  0     -74563.974  -5127935.601  -4607534.749
10 0 59368   2022.000000  0    -290604.266  -5676415.934  -3900924.295
10 0 59368   2142.000000  0    -510287.046  -6122289.343  -3125938.539
10 0 59368   2262.000000  0    -727914.667  -6457666.781  -2296102.801
10 0 59368   2382.000000  0    -937697.732  -6676679.076  -1425938.593
10 0 59368   2502.000000  0   -1133894.157  -6775592.450   -530708.360
10 0 59368   2622.000000  0   -1310949.672  -6752882.186    373856.676
10 0 59368   2742.000000  0   -1463636.461  -6609262.717   1271839.619
10 0 59368   2862.000000  0   -1587186.514  -6347673.073   2147426.604
10 0 59368   2982.000000  0   -1677415.544  -5973216.916   2985194.773
10 0 59368   3102.000000  0   -1730834.366  -5493058.450   3770392.228
10 0 59368   3222.000000  0   -1744744.183  -4916277.545   4489203.514
10 0 59368   3342.000000  0   -1717314.333  -4253689.168   5128994.594
10 0 59368   3462.000000  0   -1647641.704  -3517631.982   5678535.500
10 0 59368   3582.000000  0   -1535788.946  -2721728.231   6128195.248
10 0 59368   3702.000000  0   -1382800.521  -1880623.985   6470104.196
10 0 59368   3822.000000  0   -1190697.862  -1009715.983   6698285.602
10 0 59368   3942.000000  0    -962454.505   -124866.837   6808754.702
10 0 59368   4062.000000  0    -701950.860    757884.235   6799583.258
10 0 59368   4182.000000  0    -413908.120   1622611.515   6670931.842
10 0 59368   4302.000000  0    -103802.564   2453789.918   6425047.236
10 0 59368   4422.000000  0     222238.018   3236573.610   6066225.306
10 0 59368   4542.000000  0     557553.519   3957062.423   5600740.725
10 0 59368   4662.000000  0     895084.997   4602552.457   5036742.880
10 0 59368   4782.000000  0    1227520.712   5161766.033   4384119.069
10 0 59368   4902.000000  0    1547450.818   5625056.073   3654325.404
10 0 59368   5022.000000  0    1847528.532   5984581.866   2860191.404
10 0 59368   5142.000000  0    2120636.194   6234452.983   2015692.845
10 0 59368   5262.000000  0    2360046.974   6370833.485   1135701.324
10 0 59368   5382.000000  0    2559582.250   6392004.374    235715.043
10 0 59368   5502.000000  0    2713758.324   6298383.047   -668421.553
10 0 59368   5622.000000  0    2817920.396   6092501.025  -1560804.778
10 0 59368   5742.000000  0    2868360.099   5778939.023  -2425759.176
10 0 59368   5862.000000  0    2862413.431   5364221.991  -3248119.513
10 0 59368   5982.000000  0    2798536.541   4856675.525  -4013501.340
10 0 59368   6102.000000  0    2676357.143   4266248.683  -4708552.536
10 0 59368   6222.000000  0    2496701.202   3604309.412  -5321182.169
10 0 59368   6342.000000  0    2261595.631   2883417.853  -5840763.319
10 0 59368   6462.000000  0    1974246.980   2117082.048  -6258308.050
10 0 59368   6582.000000  0    1638996.366   1319501.660  -6566610.953
10 0 59368   6702.000000  0    1261253.611    505305.947  -6760361.839
10 0 59368   6822.000000  0     847409.904   -310710.779  -6836228.614
10 0 59368   6942.000000  0     404729.938  -1113853.080  -6792907.882
10 0 59368   7062.000000  0     -58772.944  -1889782.107  -6631143.164
10 0 59368   7182.000000  0    -534477.305  -2624763.913  -6353714.175
10 0 59368   7302.000000  0   -1013309.998  -3305908.751  -5965395.689
10 0 59368   7422.000000  0   -1485914.417  -3921395.086  -5472883.112
10 0 59368   7542.000000  0   -1942828.804  -4460675.650  -4884688.755
10 0 59368   7662.000000  0   -2374672.785  -4914663.849  -4211006.783
10 0 59368   7782.000000  0   -2772338.457  -5275894.717  -3463546.539
10 0 59368   7902.000000  0   -3127181.270  -5538656.658  -2655337.165
10 0 59368   8022.000000  0   -3431207.128  -5699091.767  -1800506.044
10 0 59368   8142.000000  0   -3677251.710  -5755261.585   -914033.314
10 0 59368   8262.000000  0   -3859146.408  -5707175.121    -11486.176
10 0 59368   8382.000000  0   -3971866.031  -5556777.578    891260.733
10 0 59368   8502.000000  0   -4011654.952  -5307899.945   1778313.046
10 0 59368   8622.000000  0   -3976127.660  -4966169.508   2634046.156
10 0 59368   8742.000000  0   -3864341.050  -4538884.199   3443388.564
10 0 59368   8862.000000  0   -3676837.326  -4034855.006   4192093.973
10 0 59368   8982.000000  0   -3415655.913  -3464219.354   4866996.648
10 0 59368   9102.000000  0   -3084314.635  -2838230.553   5456243.429
10 0 59368   9222.000000  0   -2687761.249  -2169030.275   5949499.423
10 0 59368   9342.000000  0   -2232296.579  -1469409.128   6338125.292
10 0 59368   9462.000000  0   -1725471.073   -752558.504   6615324.892
10 0 59368   9582.000000  0   -1175954.886    -31818.195   6776257.497
10 0 59368   9702.000000  0    -593388.209    679571.006   6818114.784
10 0 59368   9822.000000  0      11787.451   1368709.529   6740167.587
10 0 59368   9942.000000  0     628516.202   2023272.778   6543778.158
10 0 59368  10062.000000  0    1245329.514   2631731.648   6232377.319
10 0 59368  10182.000000  0    1850558.572   3183555.562   5811407.975
10 0 59368  10302.000000  0    2432554.494   3669397.270   5288236.279
10 0 59368  10422.000000  0    2979914.139   4081256.037   4672029.159
10 0 59368  10542.000000  0    3481706.118   4412614.018   3973597.706
10 0 59368  10662.000000  0    3927690.695   4658544.110   3205212.488
10 0 59368  10782.000000  0    4308534.908   4815789.858   2380390.428
10 0 59368  10902.000000  0    4616010.705   4882808.903   1513651.927
10 0 59368  11022.000000  0    4843172.631   4859783.158    620262.264
10 0 59368  11142.000000  0    4984515.204   4748594.545   -284045.437
10 0 59368  11262.000000  0    5036098.378   4552763.593  -1183357.326
10 0 59368  11382.000000  0    4995641.962   4277355.174  -2061866.569
10 0 59368  11502.000000  0    4862587.653   3928854.505  -2904158.018
10 0 59368  11622.000000  0    4638125.753   3515015.927  -3695483.660
10 0 59368  11742.000000  0    4325186.011   3044689.385  -4422022.649
10 0 59368  11862.000000  0    3928394.302   2527628.468  -5071120.631
10 0 59368  11982.000000  0    3453997.501   1974284.973  -5631504.224
10 0 59368  12102.000000  0    2909757.743   1395595.845  -6093468.214
10 0 59368  12222.000000  0    2304818.623    802766.858  -6449032.597
10 0 59368  12342.000000  0    1649547.781    207057.655  -6692068.041
10 0 59368  12462.000000  0     955359.818   -380427.887  -6818391.442
10 0 59368  12582.000000  0     234518.664   -948944.648  -6825831.249
10 0 59368  12702.000000  0    -500075.136  -1488297.669  -6714258.683
10 0 59368  12822.000000  0   -1235108.834  -1989019.469  -6485589.985
10 0 59368  12942.000000  0   -1957093.254  -2442533.150  -6143757.952
10 0 59368  13062.000000  0   -2652604.730  -2841297.644  -5694650.959
10 0 59368  13182.000000  0   -3308530.372  -3178933.309  -5146022.627
10 0 59368  13302.000000  0   -3912315.367  -3450327.481  -4507370.311
10 0 59368  13422.000000  0   -4452205.641  -3651715.672  -3789781.036
10 0 59368  13542.000000  0   -4917481.188  -3780737.117  -3005748.645
10 0 59368  13662.000000  0   -5298675.716  -3836463.516  -2168962.798
10 0 59368  13782.000000  0   -5587776.500  -3819399.149  -1294072.436
10 0 59368  13902.000000  0   -5778399.180  -3731451.858   -396428.498
10 0 59368  14022.000000  0   -5865933.054  -3575875.342    508189.695
10 0 59368  14142.000000  0   -5847652.942  -3357184.099   1403859.311
10 0 59368  14262.000000  0   -5722792.293  -3081041.573   2274804.573
10 0 59368  14382.000000  0   -5492575.674  -2754124.353   3105683.431
10 0 59368  14502.000000  0   -5160211.813  -2383968.141   3881865.189
10 0 59368  14622.000000  0   -4730845.865  -1978797.047   4589694.588
10 0 59368  14742.000000  0   -4211472.422  -1547341.510   5216733.460
10 0 59368  14862.000000  0   -3610814.374  -1098651.344   5751977.355
10 0 59368  14982.000000  0   -2939169.693   -641906.453   6186046.421
10 0 59368  15102.000000  0   -2208227.238   -186228.378   6511345.848
10 0 59368  15222.000000  0   -1430856.616    259501.496   6722191.607
10 0 59368  15342.000000  0    -620878.666    686812.967   6814903.259
10 0 59368  15462.000000  0     207180.840   1087806.785   6787864.147
10 0 59368  15582.000000  0    1038351.040   1455300.126   6641547.784
10 0 59368  15702.000000  0    1857485.970   1782955.619   6378509.978
99
